NETSAT-3                
1 46505U 20068V   26068.90630688  .00023315  00000+0  60372-3 0  9992
2 46505  97.8682  67.7818 0004980 358.0585   2.0638 15.39054188300392
FLOCK 4BE-15            
1 60491U 24149Z   26068.71005582  .00078474  00000+0  19250-2 0  9998
2 60491  97.3755 151.8811 0003286 305.1449  54.9489 15.40412938 87021
